ONEWEB-0517             
1 54135U 22138Y   23276.68876429  .00000057  00000+0  10970-3 0  9995
2 54135  87.9227 141.5141 0002129  84.9955 275.1421 13.19724362 46589
ONEWEB-0518             
1 54136U 22138Z   23276.63190570  .00000071  00000+0  14409-3 0  9994
2 54136  87.9225 141.5250 0001786  85.3577 274.7759 13.19724841 46572
ONEWEB-0519             
1 54137U 22138AA  23276.65717775  .00000115  00000+0  25369-3 0  9995
2 54137  87.9229 141.5183 0002164  85.4948 274.6431 13.19724665 46587
ONEWEB-0520             
1 54138U 22138AB  23276.69194224  .00000026  00000+0  32283-4 0  9993
2 54138  87.9226 141.5135 0002343  77.2786 282.8609 13.19724527 46574
ONEWEB-0521             
1 54139U 22138AC  23276.64927723  .00000075  00000+0  15541-3 0  9998
2 54139  87.9227 141.5186 0001679  90.3836 269.7489 13.19726013 46511
ONEWEB-0522             
1 54140U 22138AD  23276.70455893  .00000005  00000+0 -20198-4 0  9990
2 54140  87.9227 141.5098 0001847  75.6986 284.4352 13.19723720 46564
ONEWEB-0523             
1 54141U 22138AE  23276.84427904  .00000062  00000+0  11984-3 0  9992
2 54141  87.9157 111.0077 0000526  88.5899 271.5295 13.20772512 48970
ONEWEB-0524             
1 54142U 22138AF  23276.83165658  .00000037  00000+0  58585-4 0  9998
2 54142  87.9187 110.9905 0001559  41.8206 318.3046 13.20771390 48970
